{"type": "FeatureCollection", "features": [{"type": "Feature", "geometry": {"type": "LineString", "coordinates": [[-0.45126, 49.3356], [-0.45186, 49.33563], [-0.45189, 49.33545], [-0.45185, 49.33539], [-0.45185, 49.33534], [-0.45188, 49.33518], [-0.45192, 49.33509], [-0.45195, 49.33504], [-0.45207, 49.33508], [-0.45236, 49.33511], [-0.45244, 49.3351], [-0.45279, 49.3338], [-0.45359, 49.3339], [-0.45365, 49.33391], [-0.45393, 49.3328], [-0.45432, 49.33284], [-0.45433, 49.3327], [-0.45428, 49.3324], [-0.45555, 49.3323], [-0.45576, 49.3323], [-0.45603, 49.33228], [-0.45611, 49.33225], [-0.45627, 49.33221], [-0.45645, 49.33185], [-0.45646, 49.33179], [-0.45646, 49.33176], [-0.45636, 49.33153], [-0.45623, 49.33134], [-0.45636, 49.33153], [-0.45646, 49.33176], [-0.45646, 49.33179], [-0.45645, 49.33185], [-0.45692, 49.33184], [-0.45718, 49.33183], [-0.45729, 49.33182], [-0.45783, 49.33179], [-0.45783, 49.33212], [-0.45782, 49.3323], [-0.45786, 49.3323], [-0.45788, 49.33223], [-0.45891, 49.33225], [-0.45949, 49.33227], [-0.46079, 49.3323], [-0.46072, 49.33321], [-0.46077, 49.33323], [-0.46112, 49.33341], [-0.46135, 49.33348], [-0.46148, 49.33352], [-0.46158, 49.33357], [-0.46168, 49.33364], [-0.46192, 49.33378], [-0.46208, 49.33387], [-0.46219, 49.33395], [-0.46228, 49.33405], [-0.46234, 49.33411], [-0.46249, 49.3344], [-0.46262, 49.33451], [-0.46285, 49.33462], [-0.46284, 49.33478], [-0.46326, 49.33479], [-0.46453, 49.33482], [-0.46521, 49.33483], [-0.46526, 49.3349], [-0.46531, 49.33504], [-0.46538, 49.33504], [-0.46543, 49.33504], [-0.46548, 49.33499], [-0.4656, 49.33495], [-0.4656, 49.33491], [-0.46569, 49.33483], [-0.46572, 49.33474], [-0.46563, 49.33474], [-0.46563, 49.33468], [-0.46579, 49.33468], [-0.46616, 49.33468], [-0.46641, 49.33469], [-0.46681, 49.33471], [-0.46739, 49.33472], [-0.46752, 49.33479], [-0.46755, 49.33479], [-0.46812, 49.33481], [-0.46824, 49.33481], [-0.4683, 49.33481], [-0.46829, 49.33465], [-0.46819, 49.33437], [-0.46771, 49.33389], [-0.4677, 49.3338], [-0.46777, 49.33365], [-0.4679, 49.33351], [-0.46818, 49.33337], [-0.46841, 49.33332], [-0.46906, 49.33325], [-0.46988, 49.33297], [-0.47005, 49.33285], [-0.47016, 49.33275], [-0.47023, 49.33264], [-0.47027, 49.33247], [-0.47028, 49.33226], [-0.47021, 49.332], [-0.47021, 49.33194], [-0.47027, 49.33192], [-0.47061, 49.33163], [-0.47129, 49.33093], [-0.47127, 49.33081], [-0.47142, 49.33073], [-0.47175, 49.33047], [-0.47158, 49.33038], [-0.47154, 49.33028], [-0.47139, 49.33006], [-0.47135, 49.33002], [-0.47154, 49.32993], [-0.47182, 49.32972], [-0.47138, 49.32948], [-0.47194, 49.32904], [-0.47207, 49.32909], [-0.47263, 49.32873], [-0.47265, 49.3287], [-0.47336, 49.32831], [-0.47361, 49.32815], [-0.4737, 49.32811], [-0.47373, 49.32805], [-0.47406, 49.32777], [-0.47449, 49.32744], [-0.47456, 49.32736], [-0.47475, 49.32743], [-0.47514, 49.32757], [-0.47544, 49.32766], [-0.4758, 49.32774], [-0.476, 49.32776], [-0.47618, 49.32776], [-0.47622, 49.32766], [-0.47632, 49.32751], [-0.47652, 49.32732], [-0.4766, 49.32725], [-0.4773, 49.32672], [-0.4779, 49.32629], [-0.47841, 49.32586], [-0.47873, 49.32565], [-0.47924, 49.32542], [-0.47983, 49.32521], [-0.48154, 49.32464], [-0.48252, 49.32424], [-0.48312, 49.32406], [-0.48315, 49.32401], [-0.48324, 49.32393], [-0.48401, 49.32346], [-0.49121, 49.31896], [-0.49123, 49.31893], [-0.49132, 49.31889], [-0.4951, 49.31653], [-0.49628, 49.31555], [-0.49639, 49.3155], [-0.49652, 49.31547], [-0.49799, 49.31524], [-0.4997, 49.31499], [-0.50018, 49.31494], [-0.5057, 49.31499], [-0.50597, 49.31495], [-0.50631, 49.31487], [-0.50645, 49.31484], [-0.5065, 49.31487], [-0.50671, 49.31495], [-0.50704, 49.31501], [-0.50721, 49.31502], [-0.50725, 49.31497], [-0.50818, 49.31425], [-0.50861, 49.31408], [-0.50881, 49.31398], [-0.50894, 49.31388], [-0.50957, 49.31432], [-0.5107, 49.31342], [-0.5108, 49.3133], [-0.51101, 49.31331], [-0.51106, 49.3133], [-0.51148, 49.31298], [-0.51167, 49.31285], [-0.51184, 49.31276], [-0.5121, 49.31266], [-0.51295, 49.31241], [-0.51392, 49.3122], [-0.51461, 49.31212], [-0.51462, 49.31208], [-0.51467, 49.31204], [-0.52095, 49.30765], [-0.53332, 49.30837], [-0.53377, 49.30843], [-0.53445, 49.30857], [-0.53607, 49.30896], [-0.54196, 49.31035], [-0.54402, 49.31087], [-0.5444, 49.31099], [-0.54457, 49.31099], [-0.54473, 49.31102], [-0.54501, 49.31106], [-0.54597, 49.31128], [-0.54625, 49.31138], [-0.54676, 49.31149], [-0.54694, 49.3115], [-0.54707, 49.31149], [-0.54715, 49.31146], [-0.54729, 49.31155], [-0.54737, 49.31152], [-0.54755, 49.3115], [-0.54952, 49.31142], [-0.5499, 49.31143], [-0.55067, 49.31156], [-0.55119, 49.31169], [-0.55144, 49.31173], [-0.5516, 49.31171], [-0.5518, 49.3116], [-0.55188, 49.31155], [-0.55259, 49.31134], [-0.55271, 49.31133], [-0.55276, 49.3113], [-0.55437, 49.31082], [-0.55505, 49.31058], [-0.55607, 49.31006], [-0.55705, 49.30964], [-0.55775, 49.30934], [-0.55911, 49.30866], [-0.55938, 49.30856], [-0.56087, 49.30826], [-0.56245, 49.30796], [-0.56268, 49.30793], [-0.5629, 49.30793], [-0.56311, 49.30799], [-0.56371, 49.30805], [-0.56447, 49.30809], [-0.5651, 49.30805], [-0.56648, 49.3079], [-0.5674, 49.30774], [-0.56846, 49.3075], [-0.56999, 49.3073], [-0.572, 49.30692], [-0.57273, 49.30683], [-0.57332, 49.3068], [-0.57481, 49.30678], [-0.57561, 49.30674], [-0.57683, 49.30659], [-0.57752, 49.30645], [-0.57824, 49.30648], [-0.57901, 49.30648], [-0.57915, 49.30647], [-0.57924, 49.30646], [-0.57967, 49.30646], [-0.5804, 49.30644], [-0.58073, 49.30643], [-0.5814, 49.30636], [-0.58172, 49.30631], [-0.58415, 49.30821], [-0.58446, 49.30846], [-0.58477, 49.30871], [-0.58478, 49.30878], [-0.58475, 49.30923], [-0.58467, 49.3094], [-0.58425, 49.31006], [-0.58422, 49.31017], [-0.58422, 49.31027], [-0.58433, 49.31045], [-0.58492, 49.31102], [-0.585, 49.31122], [-0.58564, 49.31075], [-0.58575, 49.31071], [-0.58627, 49.31062], [-0.58652, 49.31053], [-0.58681, 49.31042], [-0.58704, 49.31036], [-0.58718, 49.31035], [-0.58729, 49.31037], [-0.58758, 49.31046], [-0.58766, 49.31046], [-0.58771, 49.31051], [-0.58778, 49.31055], [-0.58796, 49.31059], [-0.58812, 49.31057], [-0.58884, 49.31041], [-0.58899, 49.3104], [-0.58936, 49.31046], [-0.59051, 49.31005], [-0.59172, 49.30957], [-0.59208, 49.30938], [-0.59172, 49.30957], [-0.59051, 49.31005], [-0.58936, 49.31046], [-0.58899, 49.3104], [-0.58884, 49.31041], [-0.58812, 49.31057], [-0.58796, 49.31059], [-0.58778, 49.31055], [-0.58771, 49.31051], [-0.58766, 49.31046], [-0.58771, 49.31043], [-0.58773, 49.31038], [-0.58772, 49.31018], [-0.58764, 49.30998], [-0.5871, 49.30938], [-0.58706, 49.30929], [-0.5871, 49.30921], [-0.58739, 49.30895], [-0.58745, 49.30882], [-0.58745, 49.30865], [-0.58739, 49.30843], [-0.58712, 49.308], [-0.58709, 49.30787], [-0.58697, 49.30666], [-0.58702, 49.3061], [-0.58699, 49.30544], [-0.58702, 49.30531], [-0.58714, 49.30489], [-0.5871, 49.30474], [-0.58691, 49.30446], [-0.58692, 49.30439], [-0.58672, 49.3044], [-0.58645, 49.30445], [-0.58621, 49.30414], [-0.58613, 49.30399], [-0.58608, 49.30387], [-0.58602, 49.30377], [-0.58494, 49.30281], [-0.58444, 49.30228], [-0.58324, 49.30289], [-0.582, 49.30216], [-0.58144, 49.30189], [-0.58083, 49.30163], [-0.58052, 49.30141], [-0.58001, 49.30091], [-0.57985, 49.30079], [-0.57954, 49.30065], [-0.57849, 49.30036], [-0.57836, 49.3003], [-0.57827, 49.30023], [-0.57737, 49.29911], [-0.57711, 49.2987], [-0.57627, 49.29745], [-0.5761, 49.297], [-0.57596, 49.29655], [-0.57582, 49.2959], [-0.57572, 49.29565], [-0.57562, 49.29545], [-0.57527, 49.29504], [-0.57514, 49.29473], [-0.57497, 49.2934], [-0.575, 49.29326], [-0.57418, 49.29283], [-0.57214, 49.2917], [-0.57159, 49.29139], [-0.57097, 49.29106], [-0.57039, 49.29078], [-0.57034, 49.29074], [-0.57028, 49.29068], [-0.57025, 49.29027], [-0.57061, 49.29022], [-0.5705, 49.28934], [-0.57036, 49.28868], [-0.57019, 49.28801], [-0.56949, 49.28595], [-0.56914, 49.28531], [-0.56845, 49.28372], [-0.56824, 49.28336], [-0.56815, 49.28332], [-0.56796, 49.28315], [-0.56744, 49.28281], [-0.56673, 49.28199], [-0.56659, 49.28187], [-0.56658, 49.28179], [-0.56647, 49.28132], [-0.56643, 49.28124], [-0.56637, 49.28112], [-0.56631, 49.28103], [-0.56634, 49.28069], [-0.5664, 49.28044], [-0.56667, 49.2794], [-0.56672, 49.27909], [-0.56668, 49.27893], [-0.56661, 49.27884], [-0.56636, 49.27857], [-0.56613, 49.27843], [-0.56622, 49.27831], [-0.56651, 49.27803], [-0.56674, 49.27787], [-0.56696, 49.27774], [-0.56693, 49.27771], [-0.56624, 49.27743], [-0.5666, 49.27691], [-0.56685, 49.27649], [-0.56686, 49.27645], [-0.56686, 49.27641], [-0.56746, 49.27627], [-0.5679, 49.27619], [-0.56793, 49.27616], [-0.56804, 49.2758], [-0.56815, 49.27557], [-0.56822, 49.27543], [-0.56844, 49.27516], [-0.56878, 49.27482], [-0.56909, 49.27446], [-0.56594, 49.27256], [-0.56511, 49.27189], [-0.56485, 49.27158], [-0.56456, 49.27106], [-0.56436, 49.27084], [-0.56332, 49.27], [-0.56314, 49.26986], [-0.56291, 49.26971], [-0.56261, 49.2696], [-0.56202, 49.26941], [-0.56171, 49.26936], [-0.56156, 49.26938], [-0.56137, 49.26925], [-0.56084, 49.26895], [-0.56037, 49.2686], [-0.56015, 49.26831], [-0.55945, 49.26853], [-0.55905, 49.26863], [-0.55863, 49.26871], [-0.55848, 49.26871], [-0.55836, 49.2685], [-0.55835, 49.26842], [-0.55837, 49.26835], [-0.55879, 49.26766], [-0.55901, 49.26725], [-0.55909, 49.26692], [-0.55911, 49.26666], [-0.559, 49.26535], [-0.559, 49.26497], [-0.55907, 49.2645], [-0.55926, 49.26397], [-0.55823, 49.26373], [-0.55366, 49.26254], [-0.55324, 49.2625], [-0.55273, 49.26255], [-0.55266, 49.26252], [-0.55239, 49.26228], [-0.54907, 49.25972], [-0.5439, 49.25574], [-0.53964, 49.25238], [-0.53904, 49.2519], [-0.5389, 49.25176], [-0.53861, 49.25171], [-0.53858, 49.25168], [-0.53806, 49.25131], [-0.53767, 49.25107], [-0.53701, 49.25072], [-0.53676, 49.25056], [-0.53654, 49.2504], [-0.53645, 49.25031], [-0.5359, 49.24994], [-0.53575, 49.2499], [-0.5364, 49.24947], [-0.53694, 49.24909], [-0.53743, 49.24877], [-0.53793, 49.24835], [-0.53802, 49.24823], [-0.53795, 49.24817], [-0.53573, 49.2468], [-0.53541, 49.24667], [-0.5352, 49.24654], [-0.53511, 49.24651], [-0.53497, 49.24607], [-0.53498, 49.24597], [-0.53435, 49.24559], [-0.53411, 49.24539], [-0.5335, 49.24477], [-0.53319, 49.24452], [-0.53284, 49.24429], [-0.53241, 49.24406], [-0.53193, 49.2436], [-0.53139, 49.24304], [-0.53115, 49.24268], [-0.53105, 49.24247], [-0.53214, 49.24205], [-0.53215, 49.24198], [-0.53084, 49.24111], [-0.53073, 49.24086], [-0.52951, 49.23938], [-0.52916, 49.23887], [-0.52865, 49.23833], [-0.52859, 49.23826], [-0.52819, 49.23787], [-0.5281, 49.2378], [-0.52732, 49.23711], [-0.52722, 49.23703], [-0.52687, 49.23672], [-0.52678, 49.23666], [-0.52638, 49.23633], [-0.52614, 49.23599], [-0.52608, 49.23586], [-0.52594, 49.23582], [-0.5257, 49.23551], [-0.52537, 49.23509], [-0.52522, 49.23489], [-0.52516, 49.23474], [-0.52464, 49.23377], [-0.52455, 49.23357], [-0.52449, 49.23335], [-0.52449, 49.23326], [-0.52348, 49.23211], [-0.52302, 49.23115], [-0.52294, 49.2311], [-0.52299, 49.23103], [-0.52353, 49.23064], [-0.52356, 49.23052], [-0.52125, 49.23072], [-0.52077, 49.2308], [-0.52058, 49.23087], [-0.52032, 49.23098], [-0.52015, 49.23109], [-0.51999, 49.23123], [-0.51859, 49.23125], [-0.51783, 49.23114], [-0.51732, 49.23098], [-0.51685, 49.23071], [-0.51618, 49.23013], [-0.51539, 49.22964], [-0.51449, 49.2292], [-0.51293, 49.22858], [-0.51362, 49.22746], [-0.5137, 49.22727], [-0.51372, 49.22714], [-0.51372, 49.22689], [-0.51377, 49.22588], [-0.5137, 49.22581], [-0.51351, 49.22568], [-0.51352, 49.22561], [-0.51472, 49.22306], [-0.51548, 49.22111], [-0.51569, 49.22061], [-0.51616, 49.21977], [-0.51636, 49.21958], [-0.51641, 49.21943], [-0.51561, 49.21913], [-0.51469, 49.21881], [-0.51452, 49.21879], [-0.51204, 49.21825], [-0.51238, 49.21756], [-0.51272, 49.2167], [-0.51297, 49.2161], [-0.51316, 49.21564], [-0.51266, 49.2156], [-0.51246, 49.21558], [-0.51111, 49.21543], [-0.51112, 49.2154], [-0.51091, 49.21531], [-0.51075, 49.21523], [-0.51071, 49.2152], [-0.51063, 49.21514], [-0.51011, 49.21473], [-0.50977, 49.21444], [-0.50957, 49.21422], [-0.5095, 49.21415], [-0.50915, 49.21378], [-0.50883, 49.21352], [-0.50848, 49.21329], [-0.50851, 49.21322], [-0.5085, 49.21319], [-0.50843, 49.21314], [-0.50865, 49.21276], [-0.50869, 49.21271], [-0.50876, 49.21268], [-0.50869, 49.2126], [-0.5081, 49.21246], [-0.50776, 49.21236], [-0.50763, 49.2123], [-0.50762, 49.21222], [-0.50783, 49.21196], [-0.50754, 49.21185], [-0.50723, 49.21169], [-0.50702, 49.21155], [-0.50684, 49.21144], [-0.50671, 49.21133], [-0.50651, 49.21112], [-0.50647, 49.21108], [-0.50624, 49.2108], [-0.50604, 49.21058], [-0.50588, 49.21038], [-0.50582, 49.21016], [-0.50579, 49.20986], [-0.50568, 49.2094], [-0.50564, 49.20927], [-0.50556, 49.2092], [-0.50566, 49.20904], [-0.50574, 49.20898], [-0.5058, 49.20891], [-0.50584, 49.20889], [-0.50591, 49.20882], [-0.50607, 49.20871], [-0.50613, 49.20864], [-0.50616, 49.20861], [-0.50608, 49.20859], [-0.50603, 49.20854], [-0.50582, 49.20846], [-0.50546, 49.20836], [-0.50523, 49.2083], [-0.5042, 49.208], [-0.4932, 49.20477], [-0.49284, 49.20465], [-0.49067, 49.20401], [-0.49057, 49.20399], [-0.49049, 49.20397], [-0.4861, 49.20268], [-0.48602, 49.20266], [-0.48594, 49.20263], [-0.48223, 49.20137], [-0.48226, 49.20133], [-0.4823, 49.20129], [-0.48185, 49.20114], [-0.48184, 49.20115], [-0.48146, 49.20102], [-0.48104, 49.20086], [-0.48105, 49.20085], [-0.4801, 49.20038], [-0.4797, 49.20019], [-0.47932, 49.20001], [-0.47892, 49.19991], [-0.47848, 49.19985], [-0.47799, 49.19981], [-0.47785, 49.19981], [-0.4778, 49.19975], [-0.4783, 49.1992], [-0.47861, 49.19883], [-0.47872, 49.19866], [-0.47876, 49.19859], [-0.47882, 49.19849], [-0.47893, 49.19828], [-0.47894, 49.19825], [-0.47896, 49.19819], [-0.47896, 49.19818], [-0.47891, 49.19817], [-0.47891, 49.19815], [-0.4789, 49.19803], [-0.47907, 49.19792], [-0.47917, 49.1978], [-0.47956, 49.19711], [-0.47961, 49.19702], [-0.47968, 49.19689], [-0.47934, 49.19684], [-0.47907, 49.19682], [-0.47777, 49.19657], [-0.47595, 49.19621], [-0.47523, 49.19607], [-0.47266, 49.19562], [-0.46326, 49.19382], [-0.46309, 49.19376], [-0.46305, 49.19372], [-0.46302, 49.19365], [-0.4629, 49.19303], [-0.46281, 49.19201], [-0.46317, 49.18959], [-0.4573, 49.18961], [-0.45646, 49.18951], [-0.45539, 49.1892], [-0.45268, 49.18869], [-0.45264, 49.18877], [-0.45252, 49.18884], [-0.4524, 49.18885], [-0.45212, 49.1888], [-0.4504, 49.18842], [-0.44985, 49.18834], [-0.44926, 49.18835], [-0.44913, 49.18836], [-0.44903, 49.1884], [-0.44861, 49.18863], [-0.44855, 49.18865], [-0.44847, 49.18865], [-0.44847, 49.18887], [-0.44844, 49.18894], [-0.44835, 49.18899], [-0.44811, 49.189], [-0.4479, 49.18899], [-0.44767, 49.18895], [-0.44739, 49.18888], [-0.44714, 49.18879], [-0.44699, 49.18872], [-0.44629, 49.18835], [-0.44605, 49.18821], [-0.44593, 49.18814], [-0.44583, 49.18805], [-0.44576, 49.18793], [-0.44574, 49.18784], [-0.44572, 49.18776], [-0.44552, 49.18775], [-0.44483, 49.18771], [-0.44433, 49.18748], [-0.44406, 49.18736], [-0.44399, 49.18731], [-0.44383, 49.18709], [-0.44379, 49.18699], [-0.44375, 49.18686], [-0.44374, 49.18668], [-0.44372, 49.18588], [-0.44372, 49.18579], [-0.44372, 49.18546], [-0.44374, 49.18535], [-0.44373, 49.18502], [-0.44373, 49.18496], [-0.44374, 49.18484], [-0.44371, 49.18481], [-0.44368, 49.18473], [-0.44365, 49.18445], [-0.44371, 49.18435], [-0.44358, 49.18429], [-0.44348, 49.18424], [-0.44337, 49.18415], [-0.44333, 49.18407], [-0.44334, 49.1839], [-0.44339, 49.18381], [-0.4434, 49.1838], [-0.44347, 49.18375], [-0.4435, 49.18371], [-0.4435, 49.18366], [-0.4435, 49.18365], [-0.4435, 49.18354], [-0.44347, 49.18345], [-0.4434, 49.18332], [-0.44305, 49.1828], [-0.44299, 49.18275], [-0.4426, 49.18261], [-0.44192, 49.18234], [-0.44112, 49.18199], [-0.44107, 49.18196], [-0.44089, 49.18189], [-0.44081, 49.18187], [-0.44081, 49.18185], [-0.44074, 49.18167], [-0.44066, 49.18148], [-0.44049, 49.18123], [-0.44046, 49.1811], [-0.44023, 49.18086], [-0.43997, 49.18061], [-0.43931, 49.18015], [-0.43927, 49.18013], [-0.43923, 49.1801], [-0.43473, 49.1777], [-0.43455, 49.1776], [-0.43443, 49.1775], [-0.43437, 49.17744], [-0.43466, 49.17587], [-0.43461, 49.1758], [-0.43463, 49.17569], [-0.43464, 49.17565], [-0.43464, 49.17561], [-0.43409, 49.17556], [-0.43402, 49.17556], [-0.43393, 49.17555], [-0.43285, 49.17547], [-0.43278, 49.17546], [-0.43258, 49.17545], [-0.43232, 49.17545], [-0.43159, 49.17557], [-0.43138, 49.17555], [-0.43135, 49.17554], [-0.43131, 49.17554], [-0.43116, 49.17551], [-0.43092, 49.17543], [-0.43027, 49.17502], [-0.42973, 49.17473], [-0.42941, 49.17457], [-0.428, 49.17384], [-0.42793, 49.17378], [-0.42785, 49.17366], [-0.42783, 49.17362], [-0.42778, 49.17357], [-0.42744, 49.17353], [-0.42725, 49.1733], [-0.4269, 49.17283], [-0.42677, 49.17271], [-0.42639, 49.17244], [-0.42634, 49.17241], [-0.42628, 49.17238], [-0.42569, 49.17198], [-0.42564, 49.17195], [-0.42558, 49.17191], [-0.42416, 49.17091], [-0.42412, 49.17088], [-0.42407, 49.17084], [-0.42313, 49.17014], [-0.42306, 49.17005], [-0.42308, 49.16985], [-0.42298, 49.16971], [-0.42288, 49.16967], [-0.42284, 49.16966], [-0.42278, 49.16964], [-0.42221, 49.16939], [-0.42212, 49.16932], [-0.4219, 49.16913], [-0.42067, 49.16802], [-0.42065, 49.16801], [-0.42063, 49.16799], [-0.41985, 49.16729], [-0.41904, 49.16657], [-0.41875, 49.16631], [-0.41874, 49.16626], [-0.4187, 49.16623], [-0.41866, 49.16618], [-0.41865, 49.16618], [-0.4184, 49.16594], [-0.41815, 49.16572], [-0.41802, 49.1656], [-0.41792, 49.16552], [-0.41774, 49.16535], [-0.41771, 49.16532], [-0.41773, 49.16528], [-0.41777, 49.16527], [-0.41777, 49.16526], [-0.41774, 49.16522], [-0.41772, 49.16519], [-0.41771, 49.16518], [-0.41759, 49.16521], [-0.41753, 49.16523], [-0.41747, 49.16516], [-0.4176, 49.16481], [-0.41759, 49.16476], [-0.41727, 49.16448], [-0.41774, 49.16431], [-0.41773, 49.1643], [-0.41778, 49.16421], [-0.4178, 49.16393], [-0.41779, 49.16392], [-0.41774, 49.16386], [-0.41783, 49.16382], [-0.41787, 49.16379], [-0.41788, 49.16374], [-0.41788, 49.16372], [-0.41787, 49.16364], [-0.41785, 49.16358], [-0.4178, 49.16342], [-0.41777, 49.16336], [-0.41806, 49.16332], [-0.41805, 49.16328], [-0.41787, 49.16312], [-0.41781, 49.16306], [-0.41781, 49.163], [-0.41844, 49.16268], [-0.41873, 49.16256], [-0.41936, 49.16261], [-0.41957, 49.1626], [-0.4196, 49.16257], [-0.41967, 49.16252], [-0.41982, 49.16225], [-0.41995, 49.16205], [-0.42013, 49.16185], [-0.42121, 49.1613], [-0.42178, 49.1611], [-0.42183, 49.16106], [-0.42187, 49.16098], [-0.4222, 49.16046], [-0.42221, 49.16041], [-0.42222, 49.16032], [-0.42222, 49.16025], [-0.42204, 49.1598], [-0.42174, 49.15914], [-0.42162, 49.15899], [-0.42073, 49.1582], [-0.41987, 49.15751], [-0.41952, 49.15727], [-0.41764, 49.15609], [-0.41541, 49.15456], [-0.41544, 49.15455], [-0.41552, 49.15451], [-0.41607, 49.1539], [-0.41634, 49.15364], [-0.41648, 49.15355], [-0.41682, 49.15348], [-0.41685, 49.15346], [-0.41686, 49.15342], [-0.41687, 49.15334], [-0.41686, 49.15321], [-0.41679, 49.15307], [-0.41681, 49.15293], [-0.41692, 49.15275], [-0.4174, 49.15215], [-0.41853, 49.15089], [-0.41868, 49.15081], [-0.41903, 49.15072], [-0.4191, 49.1507], [-0.41915, 49.15068], [-0.4192, 49.15063], [-0.41923, 49.15051], [-0.41927, 49.15047], [-0.41951, 49.15034], [-0.41957, 49.15025], [-0.41958, 49.15016], [-0.41948, 49.14973], [-0.41949, 49.14959], [-0.41951, 49.14954], [-0.42007, 49.14857], [-0.42009, 49.14854], [-0.42011, 49.14851], [-0.42033, 49.14814], [-0.42115, 49.14675], [-0.42121, 49.14665], [-0.42123, 49.14661], [-0.42125, 49.14658], [-0.42122, 49.14652], [-0.4213, 49.1464], [-0.42128, 49.14639], [-0.42121, 49.14638], [-0.42116, 49.14636], [-0.42115, 49.14636], [-0.42118, 49.14631], [-0.4212, 49.14626], [-0.42122, 49.14622], [-0.42129, 49.14611], [-0.42146, 49.14581], [-0.42176, 49.1453], [-0.42232, 49.14435], [-0.42234, 49.14432], [-0.42235, 49.1443], [-0.42256, 49.14395], [-0.42258, 49.14391], [-0.42257, 49.14388], [-0.42228, 49.14391], [-0.42257, 49.14388], [-0.42258, 49.14391], [-0.42256, 49.14395], [-0.42235, 49.1443], [-0.42234, 49.14432], [-0.42232, 49.14435], [-0.42176, 49.1453], [-0.42146, 49.14581], [-0.42129, 49.14611], [-0.42122, 49.14622], [-0.4212, 49.14626], [-0.42118, 49.14631], [-0.42115, 49.14636], [-0.42116, 49.14636], [-0.42121, 49.14638], [-0.42128, 49.14639], [-0.4213, 49.1464], [-0.42122, 49.14652], [-0.42125, 49.14658], [-0.42123, 49.14661], [-0.42121, 49.14665], [-0.42115, 49.14675], [-0.42156, 49.14678], [-0.4219, 49.14691], [-0.42194, 49.14692], [-0.42199, 49.14694], [-0.42203, 49.14695], [-0.42281, 49.14726], [-0.42286, 49.1473], [-0.42292, 49.14735], [-0.42296, 49.14738], [-0.42354, 49.1477], [-0.4239, 49.14789], [-0.42481, 49.1483], [-0.42558, 49.14864], [-0.42571, 49.14871], [-0.42765, 49.14963], [-0.42969, 49.15054], [-0.43048, 49.15097], [-0.43089, 49.15121], [-0.43114, 49.15142], [-0.43194, 49.15291], [-0.43206, 49.15308], [-0.43246, 49.15357], [-0.43357, 49.15519], [-0.43371, 49.15518], [-0.43395, 49.15554], [-0.43425, 49.15624], [-0.43429, 49.15649], [-0.43424, 49.15712], [-0.43425, 49.15723], [-0.4343, 49.15731], [-0.43438, 49.15741], [-0.43465, 49.15762], [-0.43472, 49.15774], [-0.43478, 49.15775], [-0.43486, 49.15773], [-0.43494, 49.15769], [-0.43498, 49.15765], [-0.43494, 49.1574], [-0.43497, 49.15734], [-0.43494, 49.1574], [-0.43498, 49.15765], [-0.43494, 49.15769], [-0.43486, 49.15773], [-0.43478, 49.15775], [-0.43472, 49.15774], [-0.43465, 49.15762], [-0.43438, 49.15741], [-0.4343, 49.15731], [-0.43425, 49.15723], [-0.43424, 49.15712], [-0.43392, 49.15717], [-0.43339, 49.15722], [-0.43156, 49.15722], [-0.43153, 49.15726], [-0.43124, 49.15744], [-0.43102, 49.15765], [-0.4308, 49.15773], [-0.43036, 49.15783], [-0.43012, 49.15785], [-0.42894, 49.15773], [-0.42834, 49.15774], [-0.4277, 49.15783], [-0.42675, 49.15784], [-0.42642, 49.1578], [-0.42628, 49.15775], [-0.42621, 49.15766], [-0.42616, 49.15737], [-0.42612, 49.15727], [-0.42599, 49.15725], [-0.42584, 49.15714], [-0.42589, 49.15706], [-0.42547, 49.15649], [-0.42501, 49.1566], [-0.42457, 49.15673], [-0.42445, 49.1568], [-0.42394, 49.15709], [-0.42383, 49.15714], [-0.42379, 49.15715], [-0.42361, 49.15723], [-0.42344, 49.15737], [-0.42249, 49.1584], [-0.42185, 49.15905], [-0.42174, 49.15914], [-0.42155, 49.15921], [-0.42, 49.15969], [-0.41891, 49.15998], [-0.41863, 49.16001], [-0.41631, 49.15971], [-0.41559, 49.15961], [-0.41527, 49.15956], [-0.41431, 49.15942], [-0.4134, 49.15932], [-0.41231, 49.15919], [-0.41141, 49.15918], [-0.41135, 49.15918], [-0.41023, 49.15899], [-0.41012, 49.15901], [-0.40991, 49.15908], [-0.40984, 49.15907], [-0.40971, 49.15902], [-0.40968, 49.15898], [-0.40971, 49.15895], [-0.40969, 49.15893], [-0.40948, 49.15889], [-0.40837, 49.15871], [-0.40733, 49.15846], [-0.40337, 49.15747], [-0.40287, 49.15738], [-0.40182, 49.15718], [-0.40089, 49.15699], [-0.40071, 49.15714], [-0.40071, 49.15721], [-0.40067, 49.15725], [-0.4006, 49.15727], [-0.40024, 49.15731], [-0.40013, 49.15736], [-0.4, 49.15738], [-0.39961, 49.15728], [-0.39912, 49.15716], [-0.3985, 49.15701], [-0.39826, 49.15695], [-0.3976, 49.15679], [-0.39752, 49.15677], [-0.39729, 49.15676], [-0.39707, 49.15676], [-0.39697, 49.15674], [-0.39673, 49.1567], [-0.3963, 49.1566], [-0.39603, 49.15652], [-0.39558, 49.15635], [-0.39482, 49.15597], [-0.39471, 49.15589], [-0.39411, 49.15551], [-0.39408, 49.15553], [-0.39407, 49.15554], [-0.39394, 49.15546], [-0.39387, 49.15546], [-0.39381, 49.15547], [-0.39372, 49.15551], [-0.3927, 49.15587], [-0.39206, 49.1562], [-0.39197, 49.15624], [-0.39194, 49.15628], [-0.39194, 49.15635], [-0.39193, 49.15636], [-0.39185, 49.15638], [-0.39178, 49.15641], [-0.39173, 49.15642], [-0.39168, 49.1564], [-0.39159, 49.1564], [-0.3915, 49.15643], [-0.39137, 49.1565], [-0.39123, 49.15652], [-0.3912, 49.15654], [-0.39082, 49.15667], [-0.39064, 49.15682], [-0.39062, 49.15686], [-0.39061, 49.15686], [-0.39059, 49.15685], [-0.39024, 49.15734], [-0.39005, 49.15762], [-0.39016, 49.15764], [-0.39077, 49.15784], [-0.39144, 49.15807], [-0.3916, 49.15787], [-0.39228, 49.15812], [-0.39247, 49.15822], [-0.39293, 49.15847], [-0.39362, 49.15858], [-0.39405, 49.15858], [-0.39407, 49.15871], [-0.39435, 49.15866], [-0.39481, 49.15898], [-0.39518, 49.15924], [-0.39524, 49.15925], [-0.39529, 49.15926], [-0.39532, 49.15926], [-0.39534, 49.15932], [-0.3954, 49.15937], [-0.39572, 49.1594], [-0.39584, 49.1594], [-0.39622, 49.1592], [-0.39698, 49.15876], [-0.39706, 49.15879], [-0.39733, 49.15895], [-0.39745, 49.15901], [-0.39804, 49.15904], [-0.39821, 49.15905], [-0.39833, 49.15902], [-0.39846, 49.15914], [-0.39924, 49.15917], [-0.39927, 49.15915], [-0.39966, 49.15917], [-0.39962, 49.15957], [-0.39966, 49.15962], [-0.39965, 49.15965], [-0.39967, 49.15965], [-0.39971, 49.15966], [-0.3993, 49.16057], [-0.39929, 49.16059], [-0.39924, 49.1607], [-0.39931, 49.16072], [-0.39944, 49.16074], [-0.39957, 49.16077], [-0.39968, 49.16079], [-0.39981, 49.16081], [-0.39993, 49.16084], [-0.40005, 49.16086], [-0.40017, 49.16088], [-0.40029, 49.16091], [-0.4004, 49.16093], [-0.40067, 49.16098], [-0.40088, 49.16102], [-0.40113, 49.16107], [-0.40099, 49.16135], [-0.40103, 49.16138], [-0.40112, 49.16148], [-0.40129, 49.16147], [-0.40148, 49.16144], [-0.4015, 49.16149], [-0.40152, 49.16152], [-0.40156, 49.16156], [-0.40163, 49.1616], [-0.40166, 49.16162], [-0.4017, 49.16164], [-0.40184, 49.16171], [-0.40184, 49.16172], [-0.40293, 49.16147], [-0.40334, 49.16138], [-0.40382, 49.16133], [-0.4046, 49.1613], [-0.40653, 49.16134], [-0.4077, 49.16137], [-0.40815, 49.16133], [-0.40895, 49.16135], [-0.40937, 49.1614], [-0.4094, 49.1614], [-0.40944, 49.16141], [-0.4095, 49.16142], [-0.40952, 49.16142], [-0.40963, 49.16143], [-0.41036, 49.16146], [-0.41344, 49.16154], [-0.41574, 49.16164], [-0.41625, 49.16169], [-0.41784, 49.16192], [-0.41856, 49.16205], [-0.41908, 49.16217], [-0.41957, 49.16229], [-0.42001, 49.16241], [-0.42133, 49.16276], [-0.42152, 49.16281], [-0.42155, 49.16282], [-0.42196, 49.16292], [-0.42389, 49.16338], [-0.42459, 49.16321], [-0.42619, 49.16275], [-0.42638, 49.16266], [-0.42647, 49.16263], [-0.42674, 49.16255], [-0.42733, 49.16238], [-0.42733, 49.16235], [-0.42737, 49.16234], [-0.42811, 49.16213], [-0.42818, 49.16211], [-0.4283, 49.16205], [-0.42833, 49.16197], [-0.4284, 49.16187], [-0.42846, 49.16183], [-0.42855, 49.1618], [-0.42865, 49.16178], [-0.42884, 49.16179], [-0.42904, 49.16183], [-0.42906, 49.16185], [-0.42907, 49.16187], [-0.42907, 49.16189], [-0.42909, 49.16191], [-0.42911, 49.16194], [-0.42913, 49.16195], [-0.42916, 49.16197], [-0.42979, 49.1618], [-0.42985, 49.16178], [-0.43022, 49.16167], [-0.43129, 49.16137], [-0.43206, 49.16115], [-0.43227, 49.1611], [-0.43273, 49.16102], [-0.43373, 49.16096], [-0.43448, 49.16088], [-0.43485, 49.16081], [-0.4352, 49.16071], [-0.436, 49.16041], [-0.4369, 49.16004], [-0.4374, 49.15981], [-0.43751, 49.15977], [-0.4376, 49.15976], [-0.43778, 49.15968], [-0.43786, 49.15965], [-0.43819, 49.15949], [-0.43825, 49.15943], [-0.43853, 49.15932], [-0.43943, 49.15903], [-0.43987, 49.15891], [-0.44036, 49.15876], [-0.44045, 49.15874], [-0.44126, 49.15851], [-0.4413, 49.1585], [-0.44133, 49.15849], [-0.44137, 49.15848], [-0.44167, 49.15839], [-0.44175, 49.15837], [-0.44181, 49.15835], [-0.44212, 49.15826], [-0.44222, 49.15822], [-0.4424, 49.15816], [-0.4426, 49.15812], [-0.44274, 49.15808], [-0.44278, 49.15807], [-0.44283, 49.15805], [-0.4432, 49.15794], [-0.44421, 49.15765], [-0.44436, 49.15761], [-0.44574, 49.15721], [-0.44595, 49.15715], [-0.44621, 49.15708], [-0.44705, 49.15684], [-0.44712, 49.15682], [-0.44715, 49.15681], [-0.44717, 49.1568], [-0.44748, 49.15672], [-0.44717, 49.1568], [-0.44715, 49.15681], [-0.44712, 49.15682], [-0.44705, 49.15684], [-0.44621, 49.15708], [-0.44595, 49.15715], [-0.44574, 49.15721], [-0.44436, 49.15761], [-0.44421, 49.15765], [-0.4432, 49.15794], [-0.44283, 49.15805], [-0.44278, 49.15807], [-0.44274, 49.15808], [-0.4426, 49.15812], [-0.4424, 49.15816], [-0.44222, 49.15822], [-0.44212, 49.15826], [-0.44181, 49.15835], [-0.44175, 49.15837], [-0.44167, 49.15839], [-0.44137, 49.15848], [-0.44133, 49.15849], [-0.4413, 49.1585], [-0.44126, 49.15851], [-0.44045, 49.15874], [-0.44036, 49.15876], [-0.43987, 49.15891], [-0.43943, 49.15903], [-0.43853, 49.15932], [-0.43825, 49.15943], [-0.43819, 49.15949], [-0.43786, 49.15965], [-0.43778, 49.15968], [-0.4376, 49.15976], [-0.43751, 49.15977], [-0.4374, 49.15981], [-0.4369, 49.16004], [-0.436, 49.16041], [-0.4352, 49.16071], [-0.43485, 49.16081], [-0.43448, 49.16088], [-0.43373, 49.16096], [-0.43273, 49.16102], [-0.43227, 49.1611], [-0.43206, 49.16115], [-0.43129, 49.16137], [-0.43022, 49.16167], [-0.42985, 49.16178], [-0.42979, 49.1618], [-0.42916, 49.16197], [-0.42913, 49.16195], [-0.42911, 49.16194], [-0.42909, 49.16191], [-0.42907, 49.16189], [-0.42907, 49.16187], [-0.42906, 49.16185], [-0.42904, 49.16183], [-0.42884, 49.16179], [-0.42865, 49.16178], [-0.42855, 49.1618], [-0.42846, 49.16183], [-0.4284, 49.16187], [-0.42833, 49.16197], [-0.4283, 49.16205], [-0.42818, 49.16211], [-0.42811, 49.16213], [-0.42737, 49.16234], [-0.42733, 49.16235], [-0.42733, 49.16238], [-0.42674, 49.16255], [-0.42647, 49.16263], [-0.42638, 49.16266], [-0.42619, 49.16275], [-0.42459, 49.16321], [-0.42389, 49.16338], [-0.42196, 49.16292], [-0.42155, 49.16282], [-0.42152, 49.16281], [-0.42133, 49.16276], [-0.42001, 49.16241], [-0.41957, 49.16229], [-0.41908, 49.16217], [-0.41856, 49.16205], [-0.41784, 49.16192], [-0.41625, 49.16169], [-0.41574, 49.16164], [-0.41344, 49.16154], [-0.41036, 49.16146], [-0.40963, 49.16143], [-0.40952, 49.16142], [-0.40957, 49.16137], [-0.41037, 49.16044], [-0.41055, 49.16019], [-0.41109, 49.15957], [-0.41114, 49.15952], [-0.41141, 49.15918], [-0.41135, 49.15918], [-0.41023, 49.15899], [-0.41012, 49.15901], [-0.40991, 49.15908], [-0.40984, 49.15907], [-0.40971, 49.15902], [-0.40968, 49.15898], [-0.40971, 49.15895], [-0.40969, 49.15893], [-0.40948, 49.15889], [-0.40837, 49.15871], [-0.40733, 49.15846], [-0.40337, 49.15747], [-0.40287, 49.15738], [-0.40182, 49.15718], [-0.40089, 49.15699], [-0.40071, 49.15714], [-0.40071, 49.15721], [-0.40067, 49.15725], [-0.4006, 49.15727], [-0.40024, 49.15731], [-0.40013, 49.15736], [-0.4, 49.15738], [-0.39961, 49.15728], [-0.39912, 49.15716], [-0.3985, 49.15701], [-0.39826, 49.15695], [-0.3976, 49.15679], [-0.39752, 49.15677], [-0.39729, 49.15676], [-0.39707, 49.15676], [-0.39697, 49.15674], [-0.39673, 49.1567], [-0.3963, 49.1566], [-0.39603, 49.15652], [-0.39558, 49.15635], [-0.39482, 49.15597], [-0.39471, 49.15589], [-0.39411, 49.15551], [-0.39408, 49.15553], [-0.39407, 49.15554], [-0.39394, 49.15546], [-0.39387, 49.15546], [-0.39381, 49.15547], [-0.39372, 49.15551], [-0.39371, 49.15551], [-0.39369, 49.15548], [-0.39367, 49.15546], [-0.39366, 49.15546], [-0.39311, 49.15564], [-0.39303, 49.15566], [-0.39291, 49.1557], [-0.39285, 49.15564], [-0.39256, 49.15558], [-0.39234, 49.15536], [-0.39213, 49.15519], [-0.39188, 49.15523], [-0.39166, 49.15525], [-0.39136, 49.15522], [-0.39079, 49.15511], [-0.39077, 49.15506], [-0.39054, 49.15481], [-0.39051, 49.15477], [-0.3905, 49.15473], [-0.39049, 49.15471], [-0.39048, 49.15469], [-0.39032, 49.1547], [-0.39017, 49.15469], [-0.38982, 49.15464], [-0.38948, 49.15465], [-0.38919, 49.15457], [-0.38809, 49.15424], [-0.38747, 49.15412], [-0.38716, 49.15409], [-0.38683, 49.15407], [-0.38535, 49.15406], [-0.38456, 49.15393], [-0.38405, 49.15379], [-0.38395, 49.15375], [-0.38346, 49.15335], [-0.38291, 49.15268], [-0.38286, 49.15266], [-0.38273, 49.15266], [-0.3826, 49.15263], [-0.3826, 49.15256], [-0.38287, 49.15211], [-0.38296, 49.15204], [-0.38308, 49.15207], [-0.38311, 49.15217], [-0.38312, 49.15222], [-0.38301, 49.15219], [-0.38277, 49.15211], [-0.3824, 49.15198], [-0.37954, 49.15129], [-0.37909, 49.15123], [-0.3775, 49.15078], [-0.37705, 49.15073], [-0.37685, 49.15073], [-0.3767, 49.15071], [-0.37646, 49.1506], [-0.37635, 49.15067], [-0.37612, 49.15072], [-0.3761, 49.15065], [-0.37613, 49.15061], [-0.37646, 49.15031], [-0.37689, 49.14982], [-0.37693, 49.14968], [-0.37697, 49.14949], [-0.37691, 49.14948], [-0.37667, 49.14931], [-0.37646, 49.14925], [-0.37606, 49.14921], [-0.37575, 49.14917], [-0.37558, 49.14907], [-0.37549, 49.14901], [-0.37541, 49.14896], [-0.37537, 49.14889], [-0.37529, 49.14886], [-0.37531, 49.14883], [-0.37531, 49.14882], [-0.37524, 49.1488], [-0.3752, 49.1488], [-0.37516, 49.14879], [-0.37507, 49.1488], [-0.37503, 49.14879], [-0.37499, 49.14878], [-0.37501, 49.14867], [-0.37495, 49.14867], [-0.37479, 49.14865], [-0.37467, 49.14864], [-0.37427, 49.14858], [-0.37424, 49.14854], [-0.37423, 49.14847], [-0.37419, 49.14843], [-0.37396, 49.14841], [-0.37379, 49.14836], [-0.3735, 49.14834], [-0.37346, 49.14835], [-0.37334, 49.14834], [-0.37327, 49.14832], [-0.37294, 49.14829], [-0.3729, 49.14831], [-0.3727, 49.14829], [-0.3727, 49.14828], [-0.37269, 49.14828], [-0.37261, 49.14826], [-0.37253, 49.14825], [-0.37253, 49.14825], [-0.37268, 49.14788], [-0.37269, 49.14785], [-0.37105, 49.14767], [-0.37087, 49.14768], [-0.37075, 49.14764], [-0.36826, 49.14742], [-0.36655, 49.14726], [-0.36135, 49.14674], [-0.36004, 49.14656], [-0.3599, 49.14653], [-0.35969, 49.1467], [-0.35863, 49.14713], [-0.35859, 49.1472], [-0.35835, 49.14728], [-0.35758, 49.14749], [-0.35708, 49.14763], [-0.35663, 49.14773], [-0.35592, 49.14785], [-0.35584, 49.14786], [-0.35531, 49.14793], [-0.35504, 49.14795], [-0.35466, 49.14797], [-0.35465, 49.14793], [-0.35465, 49.14793], [-0.35465, 49.1479], [-0.35464, 49.14786], [-0.35463, 49.14781], [-0.35462, 49.14775], [-0.35456, 49.14738], [-0.35455, 49.14723], [-0.35457, 49.14704], [-0.35462, 49.14691], [-0.3548, 49.14662], [-0.35469, 49.14662], [-0.35434, 49.14659], [-0.35369, 49.14648], [-0.35295, 49.14607], [-0.35308, 49.14582], [-0.35268, 49.14576], [-0.35268, 49.14572], [-0.35243, 49.14567], [-0.35261, 49.14525], [-0.35261, 49.14521], [-0.35258, 49.14519], [-0.35228, 49.14513], [-0.35224, 49.14513], [-0.35219, 49.14512], [-0.35147, 49.145], [-0.3514, 49.14497], [-0.35091, 49.14489], [-0.35091, 49.14488], [-0.35092, 49.14486], [-0.35094, 49.14482], [-0.35094, 49.14481], [-0.35089, 49.14479], [-0.3509, 49.14474], [-0.35073, 49.14471], [-0.3507, 49.14471], [-0.35065, 49.1447], [-0.35059, 49.14469], [-0.35046, 49.14466], [-0.35038, 49.14454], [-0.3504, 49.1445], [-0.35011, 49.14406], [-0.34982, 49.14361], [-0.34916, 49.1426], [-0.3482, 49.14239], [-0.3485, 49.14186], [-0.34858, 49.14175], [-0.34866, 49.14154], [-0.34887, 49.14034], [-0.34828, 49.1403], [-0.34887, 49.14034], [-0.34892, 49.14013], [-0.34899, 49.13971], [-0.34894, 49.1397], [-0.34895, 49.13967], [-0.34852, 49.13955], [-0.34849, 49.13951], [-0.34853, 49.13941], [-0.34786, 49.13929], [-0.34751, 49.13925], [-0.34751, 49.13922], [-0.34712, 49.13921], [-0.34706, 49.13919], [-0.34702, 49.13915], [-0.3469, 49.13891], [-0.34684, 49.13877], [-0.34673, 49.1386], [-0.34671, 49.1386], [-0.34668, 49.13861], [-0.34663, 49.13854], [-0.34661, 49.1385], [-0.3461, 49.13773], [-0.34596, 49.13759], [-0.34591, 49.13755], [-0.34587, 49.13752], [-0.34586, 49.13747], [-0.34583, 49.13743], [-0.34568, 49.13732], [-0.34527, 49.13696], [-0.34498, 49.13671], [-0.34493, 49.13667], [-0.34478, 49.13654], [-0.3447, 49.13647], [-0.34466, 49.13643], [-0.34437, 49.13618], [-0.34428, 49.13612], [-0.34384, 49.13581], [-0.34163, 49.13452], [-0.34138, 49.13442], [-0.34107, 49.13434], [-0.33705, 49.13363], [-0.33691, 49.13356], [-0.33684, 49.13343], [-0.33586, 49.13042], [-0.33494, 49.1276], [-0.33469, 49.12699], [-0.33442, 49.12658], [-0.33425, 49.12627], [-0.33407, 49.12569], [-0.33326, 49.1223], [-0.33298, 49.12106], [-0.33297, 49.12086], [-0.33344, 49.12086], [-0.33489, 49.1209], [-0.33943, 49.12101], [-0.34042, 49.12101], [-0.34612, 49.1209], [-0.34661, 49.12091], [-0.34658, 49.12071], [-0.34658, 49.12053], [-0.3466, 49.12041], [-0.34667, 49.12036], [-0.3466, 49.12041], [-0.34658, 49.12053], [-0.34658, 49.12071], [-0.34661, 49.12091], [-0.34612, 49.1209], [-0.34042, 49.12101], [-0.33943, 49.12101], [-0.33489, 49.1209], [-0.33344, 49.12086], [-0.33297, 49.12086], [-0.33298, 49.12106], [-0.33326, 49.1223], [-0.33407, 49.12569], [-0.33425, 49.12627], [-0.33442, 49.12658], [-0.33469, 49.12699], [-0.33494, 49.1276], [-0.33586, 49.13042], [-0.33684, 49.13343], [-0.33691, 49.13356], [-0.33705, 49.13363], [-0.34107, 49.13434], [-0.34138, 49.13442], [-0.34163, 49.13452], [-0.34384, 49.13581], [-0.34428, 49.13612], [-0.34437, 49.13618], [-0.34466, 49.13643], [-0.3447, 49.13647], [-0.34478, 49.13654], [-0.34493, 49.13667], [-0.34498, 49.13671], [-0.34527, 49.13696], [-0.34524, 49.13697], [-0.34528, 49.13701], [-0.34564, 49.13733], [-0.34579, 49.13748], [-0.34573, 49.13759], [-0.34539, 49.13819], [-0.34536, 49.13821], [-0.34532, 49.13822], [-0.3453, 49.13823], [-0.34529, 49.13825], [-0.34527, 49.13829], [-0.34528, 49.13837], [-0.34518, 49.13853], [-0.34504, 49.13877], [-0.34501, 49.13883], [-0.34497, 49.1389], [-0.34477, 49.13922], [-0.34464, 49.13925], [-0.34458, 49.13928], [-0.34453, 49.13931], [-0.34451, 49.13937], [-0.34452, 49.13948], [-0.34429, 49.1395], [-0.34391, 49.13958], [-0.34344, 49.13968], [-0.3426, 49.13985], [-0.34238, 49.13989], [-0.34224, 49.13986], [-0.34217, 49.13985], [-0.34212, 49.13992], [-0.342, 49.13997], [-0.34166, 49.14005], [-0.34071, 49.14025], [-0.34069, 49.14022], [-0.34069, 49.14021], [-0.34052, 49.14013], [-0.34047, 49.1401], [-0.34043, 49.1401], [-0.34039, 49.14011], [-0.34035, 49.14011], [-0.34031, 49.14011], [-0.34027, 49.14012], [-0.34023, 49.14012], [-0.34011, 49.14021], [-0.34007, 49.14035], [-0.34008, 49.14038], [-0.34003, 49.1404], [-0.33972, 49.14048], [-0.33958, 49.14048], [-0.33936, 49.14049], [-0.33914, 49.14049], [-0.33902, 49.14049], [-0.33889, 49.14049], [-0.33868, 49.1405], [-0.33869, 49.14068], [-0.33856, 49.14071], [-0.33857, 49.14074], [-0.33847, 49.1408], [-0.33838, 49.14094], [-0.33829, 49.14093], [-0.33822, 49.14092], [-0.338, 49.14092], [-0.33789, 49.14092], [-0.33789, 49.14099], [-0.33785, 49.14101], [-0.33777, 49.14104], [-0.33766, 49.14101], [-0.33763, 49.14105], [-0.33758, 49.14103], [-0.33755, 49.14107], [-0.33675, 49.14142], [-0.33625, 49.14164], [-0.33539, 49.14202], [-0.3351, 49.1421], [-0.33507, 49.14207], [-0.33487, 49.14206], [-0.33482, 49.14204], [-0.33476, 49.14206], [-0.33469, 49.14209], [-0.33452, 49.14216], [-0.33422, 49.14169], [-0.33402, 49.14138], [-0.33386, 49.14119], [-0.33359, 49.14087], [-0.33329, 49.1406], [-0.33343, 49.14056], [-0.33355, 49.14052], [-0.3336, 49.14056], [-0.33409, 49.14042], [-0.33414, 49.14036], [-0.33413, 49.14031], [-0.33409, 49.14023], [-0.33343, 49.13968], [-0.33345, 49.13965], [-0.33337, 49.13959], [-0.33327, 49.13964], [-0.33323, 49.1396], [-0.33294, 49.13937], [-0.33291, 49.13939], [-0.33285, 49.13934], [-0.33291, 49.13939], [-0.33294, 49.13937], [-0.33323, 49.1396], [-0.33327, 49.13964], [-0.33337, 49.13959], [-0.33345, 49.13965], [-0.33343, 49.13968], [-0.33409, 49.14023], [-0.33413, 49.14031], [-0.33414, 49.14036], [-0.33409, 49.14042], [-0.3336, 49.14056], [-0.33355, 49.14052], [-0.33343, 49.14056], [-0.33329, 49.1406], [-0.33359, 49.14087], [-0.33386, 49.14119], [-0.33402, 49.14138], [-0.33422, 49.14169], [-0.33452, 49.14216], [-0.33469, 49.14209], [-0.33476, 49.14206], [-0.33482, 49.14204], [-0.33487, 49.14206], [-0.33507, 49.14207], [-0.3351, 49.1421], [-0.33539, 49.14202], [-0.33625, 49.14164], [-0.33675, 49.14142], [-0.33755, 49.14107], [-0.33758, 49.14103], [-0.33763, 49.14105], [-0.33766, 49.14101], [-0.33777, 49.14104], [-0.33785, 49.14101], [-0.33789, 49.14099], [-0.33789, 49.14092], [-0.338, 49.14092], [-0.33822, 49.14092], [-0.33829, 49.14093], [-0.33838, 49.14094], [-0.33847, 49.1408], [-0.33857, 49.14074], [-0.33856, 49.14071], [-0.33869, 49.14068], [-0.33868, 49.1405], [-0.33889, 49.14049], [-0.33902, 49.14049], [-0.33914, 49.14049], [-0.33936, 49.14049], [-0.33958, 49.14048], [-0.33972, 49.14048], [-0.34003, 49.1404], [-0.34008, 49.14038], [-0.34007, 49.14035], [-0.34011, 49.14021], [-0.34023, 49.14012], [-0.34027, 49.14012], [-0.34031, 49.14011], [-0.34035, 49.14011], [-0.34039, 49.14011], [-0.34043, 49.1401], [-0.34047, 49.1401], [-0.34052, 49.14013], [-0.34069, 49.14021], [-0.34069, 49.14022], [-0.34071, 49.14025], [-0.34166, 49.14005], [-0.342, 49.13997], [-0.34212, 49.13992], [-0.34217, 49.13985], [-0.34224, 49.13986], [-0.34238, 49.13989], [-0.3426, 49.13985], [-0.34344, 49.13968], [-0.34391, 49.13958], [-0.34429, 49.1395], [-0.34452, 49.13948], [-0.34451, 49.13937], [-0.34453, 49.13931], [-0.34458, 49.13928], [-0.34464, 49.13925], [-0.34477, 49.13922], [-0.34497, 49.1389], [-0.34501, 49.13883], [-0.34504, 49.13877], [-0.34518, 49.13853], [-0.34528, 49.13837], [-0.34527, 49.13829], [-0.34529, 49.13825], [-0.3453, 49.13823], [-0.34532, 49.13822], [-0.34536, 49.13821], [-0.34539, 49.13819], [-0.34573, 49.13759], [-0.34579, 49.13748], [-0.34564, 49.13733], [-0.34528, 49.13701], [-0.34524, 49.13697], [-0.34527, 49.13696], [-0.34498, 49.13671], [-0.34493, 49.13667], [-0.34478, 49.13654], [-0.3447, 49.13647], [-0.34466, 49.13643], [-0.34437, 49.13618], [-0.34428, 49.13612], [-0.34384, 49.13581], [-0.34163, 49.13452], [-0.34138, 49.13442], [-0.34107, 49.13434], [-0.33705, 49.13363], [-0.33691, 49.13356], [-0.33684, 49.13343], [-0.33586, 49.13042], [-0.33494, 49.1276], [-0.33469, 49.12699], [-0.33442, 49.12658], [-0.33425, 49.12627], [-0.33407, 49.12569], [-0.33326, 49.1223], [-0.33314, 49.12177], [-0.33326, 49.1223], [-0.33407, 49.12569], [-0.33425, 49.12627], [-0.33442, 49.12658], [-0.33469, 49.12699], [-0.34717, 49.12932], [-0.34644, 49.13053], [-0.34643, 49.1306], [-0.34647, 49.13067], [-0.34682, 49.13096], [-0.34896, 49.13312], [-0.34899, 49.13322], [-0.34897, 49.13339], [-0.34872, 49.13477], [-0.34873, 49.135], [-0.34878, 49.13514], [-0.34894, 49.13535], [-0.34904, 49.13543], [-0.34925, 49.13554], [-0.34938, 49.13561], [-0.34958, 49.13571], [-0.34968, 49.13567], [-0.34992, 49.13578], [-0.3502, 49.13591], [-0.35023, 49.13592], [-0.35071, 49.13616], [-0.35082, 49.13625], [-0.35088, 49.13636], [-0.3509, 49.13648], [-0.35086, 49.13666], [-0.35083, 49.13674], [-0.35088, 49.13675], [-0.35089, 49.13675], [-0.35075, 49.13699], [-0.35077, 49.13707], [-0.35085, 49.1371], [-0.35117, 49.13705], [-0.35118, 49.13706], [-0.35119, 49.13709], [-0.3512, 49.13712], [-0.35121, 49.13715], [-0.35122, 49.13718], [-0.3515, 49.13728], [-0.35183, 49.13742], [-0.35201, 49.13739], [-0.35289, 49.13742], [-0.35366, 49.13749], [-0.35375, 49.13752], [-0.35382, 49.13762], [-0.35388, 49.13814], [-0.3539, 49.13816], [-0.35449, 49.13821], [-0.35457, 49.13823], [-0.35465, 49.13824], [-0.35537, 49.13841], [-0.35545, 49.13843], [-0.35551, 49.13844], [-0.35554, 49.13845], [-0.35593, 49.13859], [-0.35617, 49.1387], [-0.3565, 49.13893], [-0.35671, 49.13914], [-0.35674, 49.13917], [-0.35677, 49.13921], [-0.35686, 49.13941], [-0.35689, 49.13945], [-0.35699, 49.13947], [-0.35751, 49.13957], [-0.3576, 49.13958], [-0.35783, 49.13957], [-0.35784, 49.13959], [-0.35797, 49.13956], [-0.35805, 49.13947], [-0.35806, 49.13946], [-0.35808, 49.13946], [-0.3581, 49.13946], [-0.35815, 49.13945], [-0.35817, 49.13944], [-0.35821, 49.13943], [-0.35823, 49.13943], [-0.35832, 49.13947], [-0.35838, 49.13947], [-0.35848, 49.13945], [-0.35853, 49.13941], [-0.35854, 49.13942], [-0.35858, 49.13944], [-0.35863, 49.13946], [-0.35932, 49.13976], [-0.35964, 49.13991], [-0.35958, 49.14003], [-0.35957, 49.14006], [-0.35955, 49.14008], [-0.35954, 49.1401], [-0.36172, 49.14064], [-0.36237, 49.14077], [-0.36445, 49.14112], [-0.36494, 49.14123], [-0.36554, 49.14138], [-0.36678, 49.14175], [-0.36691, 49.14182], [-0.36697, 49.14179], [-0.36704, 49.14173], [-0.36709, 49.14169], [-0.36716, 49.1417], [-0.36727, 49.14165], [-0.36739, 49.14162], [-0.36759, 49.14162], [-0.36775, 49.14167], [-0.36778, 49.1417], [-0.36784, 49.14174], [-0.36789, 49.14177], [-0.36795, 49.14187], [-0.36795, 49.14201], [-0.36789, 49.14206], [-0.36784, 49.1421], [-0.36781, 49.14213], [-0.36795, 49.14216], [-0.3697, 49.14285], [-0.37, 49.14305], [-0.3707, 49.14343], [-0.37086, 49.14357], [-0.37101, 49.14351], [-0.37147, 49.14377], [-0.3715, 49.14383], [-0.3715, 49.14404], [-0.37148, 49.14409], [-0.37152, 49.14411], [-0.37154, 49.14412], [-0.37157, 49.14414], [-0.37163, 49.14418], [-0.37166, 49.14419], [-0.37169, 49.14421], [-0.3717, 49.14422], [-0.37172, 49.14424], [-0.37218, 49.1442], [-0.37221, 49.14421], [-0.37225, 49.14422], [-0.3731, 49.14473], [-0.3734, 49.14493], [-0.37369, 49.14508], [-0.37372, 49.14512], [-0.37375, 49.14512], [-0.37379, 49.14513], [-0.37382, 49.14514], [-0.37386, 49.14514], [-0.37391, 49.14515], [-0.37396, 49.14516], [-0.37397, 49.14516], [-0.374, 49.14511], [-0.37404, 49.1451], [-0.37416, 49.14513], [-0.37422, 49.14516], [-0.37427, 49.14518], [-0.37432, 49.1452], [-0.3747, 49.14535], [-0.37473, 49.14536], [-0.37476, 49.14537], [-0.37506, 49.1455], [-0.37516, 49.14554], [-0.3752, 49.14557], [-0.37526, 49.14562], [-0.37531, 49.14567], [-0.37534, 49.1458], [-0.37533, 49.14592], [-0.37534, 49.14598], [-0.3753, 49.14612], [-0.37523, 49.14633], [-0.3752, 49.1464], [-0.37514, 49.14657], [-0.37502, 49.14688], [-0.37496, 49.14703], [-0.3748, 49.14741], [-0.37472, 49.14762], [-0.37468, 49.14776], [-0.37464, 49.14796], [-0.37464, 49.14827], [-0.37465, 49.14828], [-0.37467, 49.14832], [-0.37467, 49.14845], [-0.37468, 49.14861], [-0.37477, 49.14862], [-0.3748, 49.14862], [-0.37483, 49.14863], [-0.37486, 49.14863], [-0.37495, 49.14864], [-0.37495, 49.14867], [-0.37501, 49.14867], [-0.37499, 49.14878], [-0.37503, 49.14879], [-0.37507, 49.1488], [-0.37516, 49.14879], [-0.3752, 49.1488], [-0.37524, 49.1488], [-0.37531, 49.14882], [-0.37531, 49.14883], [-0.37529, 49.14886], [-0.37537, 49.14889], [-0.37541, 49.14896], [-0.37549, 49.14901], [-0.37558, 49.14907], [-0.37575, 49.14917], [-0.37606, 49.14921], [-0.37646, 49.14925], [-0.37667, 49.14931], [-0.37691, 49.14948], [-0.37697, 49.14949], [-0.37693, 49.14968], [-0.37689, 49.14982], [-0.37646, 49.15031], [-0.37613, 49.15061], [-0.3761, 49.15065], [-0.37612, 49.15072], [-0.37635, 49.15067], [-0.37646, 49.1506], [-0.3767, 49.15071], [-0.37685, 49.15073], [-0.37705, 49.15073], [-0.3775, 49.15078], [-0.37909, 49.15123], [-0.37954, 49.15129], [-0.3824, 49.15198], [-0.38277, 49.15211], [-0.38301, 49.15219], [-0.38312, 49.15222], [-0.38311, 49.15217], [-0.38308, 49.15207], [-0.38296, 49.15204], [-0.38287, 49.15211], [-0.3826, 49.15256], [-0.3826, 49.15263], [-0.38273, 49.15266], [-0.38286, 49.15266], [-0.38291, 49.15268], [-0.38346, 49.15335], [-0.38395, 49.15375], [-0.38405, 49.15379], [-0.38456, 49.15393], [-0.38535, 49.15406], [-0.38683, 49.15407], [-0.38716, 49.15409], [-0.38747, 49.15412], [-0.38809, 49.15424], [-0.38919, 49.15457], [-0.38943, 49.15472], [-0.38948, 49.15481], [-0.38954, 49.15504], [-0.3897, 49.15513], [-0.38976, 49.15517], [-0.38963, 49.15553], [-0.38964, 49.15558], [-0.38974, 49.15568], [-0.38937, 49.15634], [-0.38922, 49.15651], [-0.38923, 49.15652], [-0.38925, 49.15652], [-0.38902, 49.15682], [-0.38907, 49.15683], [-0.38909, 49.15684], [-0.38908, 49.1569], [-0.38914, 49.15695], [-0.38923, 49.15695], [-0.38941, 49.15694], [-0.38987, 49.15685], [-0.39041, 49.15672], [-0.39038, 49.15668], [-0.39034, 49.15668], [-0.39038, 49.15668], [-0.39041, 49.15672], [-0.38987, 49.15685], [-0.38941, 49.15694], [-0.38923, 49.15695], [-0.38914, 49.15695], [-0.38908, 49.1569], [-0.38909, 49.15684], [-0.38907, 49.15683], [-0.38902, 49.15682], [-0.38925, 49.15652], [-0.38923, 49.15652], [-0.38922, 49.15651], [-0.38937, 49.15634], [-0.38974, 49.15568], [-0.38964, 49.15558], [-0.38963, 49.15553], [-0.38976, 49.15517], [-0.3897, 49.15513], [-0.38954, 49.15504], [-0.38948, 49.15481], [-0.38943, 49.15472], [-0.38919, 49.15457], [-0.38809, 49.15424], [-0.38747, 49.15412], [-0.38716, 49.15409], [-0.38683, 49.15407], [-0.38535, 49.15406], [-0.38456, 49.15393], [-0.38405, 49.15379], [-0.38395, 49.15375], [-0.38346, 49.15335], [-0.38291, 49.15268], [-0.38286, 49.15266], [-0.38273, 49.15266], [-0.3826, 49.15263], [-0.3826, 49.15256], [-0.38287, 49.15211], [-0.38296, 49.15204], [-0.38308, 49.15207], [-0.38311, 49.15217], [-0.38312, 49.15222], [-0.38301, 49.15219], [-0.38277, 49.15211], [-0.3824, 49.15198], [-0.37954, 49.15129], [-0.37909, 49.15123], [-0.3775, 49.15078], [-0.37705, 49.15073], [-0.37685, 49.15073], [-0.3767, 49.15071], [-0.37646, 49.1506], [-0.37635, 49.15067], [-0.37612, 49.15072], [-0.3761, 49.15065], [-0.37613, 49.15061], [-0.37646, 49.15031], [-0.37689, 49.14982], [-0.37693, 49.14968], [-0.37697, 49.14949], [-0.37691, 49.14948], [-0.37667, 49.14931], [-0.37646, 49.14925], [-0.37606, 49.14921], [-0.37575, 49.14917], [-0.37558, 49.14907], [-0.37549, 49.14901], [-0.37541, 49.14896], [-0.37537, 49.14889], [-0.37529, 49.14886], [-0.37531, 49.14883], [-0.37531, 49.14882], [-0.37524, 49.1488], [-0.3752, 49.1488], [-0.37516, 49.14879], [-0.37507, 49.1488], [-0.37503, 49.14879], [-0.37499, 49.14878], [-0.37501, 49.14867], [-0.37495, 49.14867], [-0.37495, 49.14864], [-0.37486, 49.14863], [-0.37483, 49.14863], [-0.3748, 49.14862], [-0.37477, 49.14862], [-0.37468, 49.14861], [-0.37467, 49.14845], [-0.37467, 49.14832], [-0.37465, 49.14828], [-0.37464, 49.14827], [-0.37464, 49.14796], [-0.37468, 49.14776], [-0.37472, 49.14762], [-0.3748, 49.14741], [-0.37496, 49.14703], [-0.37502, 49.14688], [-0.37514, 49.14657], [-0.3752, 49.1464], [-0.37523, 49.14633], [-0.3753, 49.14612], [-0.37534, 49.14598], [-0.37533, 49.14592], [-0.37534, 49.1458], [-0.37531, 49.14567], [-0.37526, 49.14562], [-0.3752, 49.14557], [-0.37516, 49.14554], [-0.37506, 49.1455], [-0.37476, 49.14537], [-0.37473, 49.14536], [-0.3747, 49.14535], [-0.37432, 49.1452], [-0.37427, 49.14518], [-0.37422, 49.14516], [-0.37416, 49.14513], [-0.37404, 49.1451], [-0.374, 49.14511], [-0.37397, 49.14516], [-0.37396, 49.14516], [-0.37391, 49.14515], [-0.37386, 49.14514], [-0.37382, 49.14514], [-0.37379, 49.14513], [-0.37375, 49.14512], [-0.37372, 49.14512], [-0.37369, 49.14508], [-0.3734, 49.14493], [-0.3731, 49.14473], [-0.37225, 49.14422], [-0.37221, 49.14421], [-0.37218, 49.1442], [-0.37172, 49.14424], [-0.3717, 49.14422], [-0.37169, 49.14421], [-0.37166, 49.14419], [-0.37163, 49.14418], [-0.37157, 49.14414], [-0.37154, 49.14412], [-0.37152, 49.14411], [-0.37148, 49.14409], [-0.3715, 49.14404], [-0.3715, 49.14383], [-0.37147, 49.14377], [-0.37101, 49.14351], [-0.37086, 49.14357], [-0.3707, 49.14343], [-0.37, 49.14305], [-0.3697, 49.14285], [-0.36795, 49.14216], [-0.36781, 49.14213], [-0.36784, 49.1421], [-0.36789, 49.14206], [-0.36795, 49.14201], [-0.36795, 49.14187], [-0.36789, 49.14177], [-0.36784, 49.14174], [-0.36778, 49.1417], [-0.36775, 49.14167], [-0.36759, 49.14162], [-0.36739, 49.14162], [-0.36727, 49.14165], [-0.36716, 49.1417], [-0.36709, 49.14169], [-0.36704, 49.14173], [-0.36697, 49.14179], [-0.36691, 49.14182], [-0.36678, 49.14175], [-0.36554, 49.14138], [-0.36494, 49.14123], [-0.36445, 49.14112], [-0.36237, 49.14077], [-0.36172, 49.14064], [-0.35954, 49.1401], [-0.35955, 49.14008], [-0.35957, 49.14006], [-0.35958, 49.14003], [-0.35964, 49.13991], [-0.35932, 49.13976], [-0.35863, 49.13946], [-0.35858, 49.13944], [-0.35854, 49.13942], [-0.35853, 49.13941], [-0.35848, 49.13945], [-0.35838, 49.13947], [-0.35832, 49.13947], [-0.35823, 49.13943], [-0.35821, 49.13943], [-0.35817, 49.13944], [-0.35815, 49.13945], [-0.3581, 49.13946], [-0.35808, 49.13946], [-0.35806, 49.13946], [-0.35805, 49.13947], [-0.35797, 49.13956], [-0.35784, 49.13959], [-0.35783, 49.13957], [-0.3576, 49.13958], [-0.35751, 49.13957], [-0.35699, 49.13947], [-0.35689, 49.13945], [-0.35686, 49.13941], [-0.35677, 49.13921], [-0.35674, 49.13917], [-0.35671, 49.13914], [-0.3565, 49.13893], [-0.35617, 49.1387], [-0.35593, 49.13859], [-0.35554, 49.13845], [-0.35551, 49.13844], [-0.35545, 49.13843], [-0.35537, 49.13841], [-0.35465, 49.13824], [-0.35457, 49.13823], [-0.35449, 49.13821], [-0.3539, 49.13816], [-0.35388, 49.13814], [-0.35382, 49.13762], [-0.35375, 49.13752], [-0.35366, 49.13749], [-0.35289, 49.13742], [-0.35201, 49.13739], [-0.35183, 49.13742], [-0.3515, 49.13728], [-0.35122, 49.13718], [-0.35121, 49.13715], [-0.3512, 49.13712], [-0.35119, 49.13709], [-0.35118, 49.13706], [-0.35117, 49.13705], [-0.35085, 49.1371], [-0.35077, 49.13707], [-0.35075, 49.13699], [-0.35089, 49.13675], [-0.35088, 49.13675], [-0.35083, 49.13674], [-0.35086, 49.13666], [-0.3509, 49.13648], [-0.35088, 49.13636], [-0.35082, 49.13625], [-0.35071, 49.13616], [-0.35023, 49.13592], [-0.3502, 49.13591], [-0.34992, 49.13578], [-0.34968, 49.13567], [-0.34958, 49.13571], [-0.34938, 49.13561], [-0.34925, 49.13554], [-0.34904, 49.13543], [-0.34894, 49.13535], [-0.34878, 49.13514], [-0.34873, 49.135], [-0.34872, 49.13477], [-0.34897, 49.13339], [-0.34899, 49.13322], [-0.34896, 49.13312], [-0.34682, 49.13096], [-0.34647, 49.13067], [-0.34643, 49.1306], [-0.34644, 49.13053], [-0.34717, 49.12932], [-0.34029, 49.12804], [-0.33469, 49.12699], [-0.33442, 49.12658], [-0.33425, 49.12627], [-0.33407, 49.12569], [-0.33326, 49.1223], [-0.33298, 49.12106], [-0.33297, 49.12086], [-0.33344, 49.12086], [-0.33489, 49.1209], [-0.33486, 49.11995], [-0.3348, 49.11847], [-0.33478, 49.11773], [-0.33475, 49.11759], [-0.33415, 49.11618], [-0.33389, 49.11544], [-0.33324, 49.11343], [-0.33322, 49.11307], [-0.33326, 49.11175], [-0.33332, 49.11106], [-0.33338, 49.11079], [-0.33344, 49.11066], [-0.33297, 49.11054], [-0.33269, 49.11047], [-0.33255, 49.11043], [-0.33259, 49.1102], [-0.33266, 49.10974], [-0.33292, 49.10915], [-0.33295, 49.10871], [-0.33316, 49.10715], [-0.33387, 49.10264], [-0.33234, 49.10279], [-0.3308, 49.10302], [-0.33077, 49.10291], [-0.33067, 49.10262], [-0.33062, 49.10236], [-0.33062, 49.10101], [-0.33058, 49.10044], [-0.33048, 49.09943], [-0.32383, 49.09883], [-0.3236, 49.09875], [-0.32311, 49.0985], [-0.32326, 49.09833], [-0.32334, 49.09821], [-0.32343, 49.09803], [-0.3235, 49.09789], [-0.32374, 49.09712], [-0.32395, 49.09641], [-0.32396, 49.09636], [-0.3241, 49.09593], [-0.32423, 49.09537], [-0.3243, 49.09527], [-0.32426, 49.09525], [-0.32424, 49.09524], [-0.32427, 49.09515], [-0.32425, 49.09511], [-0.32426, 49.0951], [-0.32429, 49.09508], [-0.32432, 49.09507], [-0.32433, 49.09506], [-0.32401, 49.09473], [-0.32399, 49.0947], [-0.32396, 49.09467], [-0.32376, 49.09446], [-0.3237, 49.09441], [-0.32368, 49.09439], [-0.32369, 49.09438], [-0.32362, 49.09431], [-0.3236, 49.09429], [-0.32358, 49.09427], [-0.32348, 49.09418], [-0.32328, 49.09406], [-0.32311, 49.09401], [-0.32308, 49.09401], [-0.32309, 49.09399], [-0.32315, 49.09361], [-0.32315, 49.09353], [-0.3231, 49.09353], [-0.32306, 49.09332], [-0.32303, 49.09326], [-0.32297, 49.09316], [-0.32254, 49.09261], [-0.32244, 49.09248], [-0.32224, 49.09225], [-0.32205, 49.09207], [-0.32182, 49.09184], [-0.32155, 49.09157], [-0.32109, 49.09111], [-0.32103, 49.09106], [-0.31985, 49.08941], [-0.3195, 49.08899], [-0.31914, 49.08859], [-0.31879, 49.08814], [-0.31852, 49.08775], [-0.31821, 49.0875], [-0.31791, 49.08736], [-0.31682, 49.08693], [-0.31531, 49.08843], [-0.31524, 49.08846], [-0.31513, 49.08847], [-0.31504, 49.08843], [-0.3117, 49.08571], [-0.31123, 49.08536], [-0.30955, 49.08487], [-0.30941, 49.08485], [-0.30905, 49.08477], [-0.3033, 49.08321], [-0.30318, 49.08311], [-0.30158, 49.0803], [-0.30017, 49.07785], [-0.2984, 49.07469], [-0.2984, 49.07463], [-0.29843, 49.07456], [-0.29848, 49.07452], [-0.30043, 49.07376], [-0.30049, 49.07372], [-0.30048, 49.07361], [-0.29987, 49.07289], [-0.29914, 49.07335], [-0.29903, 49.07343], [-0.29894, 49.07351], [-0.29881, 49.07368], [-0.29872, 49.0738], [-0.29864, 49.07385], [-0.29872, 49.0738], [-0.29881, 49.07368], [-0.29894, 49.07351], [-0.29903, 49.07343], [-0.29914, 49.07335], [-0.29987, 49.07289], [-0.30048, 49.07361], [-0.30049, 49.07372], [-0.30043, 49.07376], [-0.29848, 49.07452], [-0.29843, 49.07456], [-0.2984, 49.07463], [-0.2984, 49.07469], [-0.30017, 49.07785], [-0.30158, 49.0803], [-0.30295, 49.0789], [-0.30384, 49.07806], [-0.30508, 49.07721], [-0.30521, 49.07715], [-0.30508, 49.07721], [-0.30384, 49.07806], [-0.30295, 49.0789], [-0.30158, 49.0803], [-0.30017, 49.07785], [-0.2984, 49.07469], [-0.2984, 49.07463], [-0.29843, 49.07456], [-0.29848, 49.07452], [-0.30043, 49.07376], [-0.30049, 49.07372], [-0.30048, 49.07361], [-0.29987, 49.07289], [-0.30009, 49.07272], [-0.30023, 49.07255], [-0.30032, 49.07238], [-0.30039, 49.07221], [-0.30042, 49.07203], [-0.30043, 49.07191], [-0.30037, 49.07171], [-0.3003, 49.07158], [-0.30016, 49.0714], [-0.29995, 49.07148], [-0.29951, 49.0716], [-0.29752, 49.07192], [-0.29691, 49.07205], [-0.29631, 49.0722], [-0.29606, 49.07227], [-0.29586, 49.07237], [-0.29568, 49.07247], [-0.29555, 49.07257], [-0.29544, 49.07268], [-0.29534, 49.07282], [-0.29524, 49.07307], [-0.29523, 49.07319], [-0.29526, 49.07345], [-0.29537, 49.07366], [-0.29553, 49.07384], [-0.29566, 49.07394], [-0.29586, 49.07407], [-0.2963, 49.07423], [-0.29625, 49.07451], [-0.29626, 49.07457], [-0.29638, 49.07458], [-0.29639, 49.07475], [-0.29644, 49.07489], [-0.29648, 49.07502], [-0.2965, 49.0752], [-0.29647, 49.07537], [-0.29643, 49.07544], [-0.29595, 49.07592], [-0.29589, 49.07601], [-0.29585, 49.07607], [-0.29584, 49.07609], [-0.29582, 49.07613], [-0.29573, 49.07607], [-0.29544, 49.07636], [-0.29479, 49.07699], [-0.2944, 49.07732], [-0.29431, 49.07738], [-0.2944, 49.07732], [-0.29479, 49.07699], [-0.29573, 49.07607], [-0.29582, 49.07613], [-0.29584, 49.07609], [-0.29585, 49.07607], [-0.29589, 49.07601], [-0.29595, 49.07592], [-0.29643, 49.07544], [-0.29647, 49.07537], [-0.2965, 49.0752], [-0.29648, 49.07502], [-0.29644, 49.07489], [-0.29639, 49.07475], [-0.29638, 49.07458], [-0.29626, 49.07457], [-0.29625, 49.07451], [-0.2963, 49.07423], [-0.29586, 49.07407], [-0.29566, 49.07394], [-0.29553, 49.07384], [-0.29537, 49.07366], [-0.29526, 49.07345], [-0.29523, 49.07319], [-0.29524, 49.07307], [-0.29534, 49.07282], [-0.29544, 49.07268], [-0.29555, 49.07257], [-0.29568, 49.07247], [-0.29586, 49.07237], [-0.29606, 49.07227], [-0.29631, 49.0722], [-0.29691, 49.07205], [-0.29752, 49.07192], [-0.29951, 49.0716], [-0.29995, 49.07148], [-0.30016, 49.0714], [-0.30047, 49.07121], [-0.30073, 49.07098], [-0.30082, 49.07086], [-0.30096, 49.0706], [-0.30214, 49.06725], [-0.30223, 49.06707], [-0.30236, 49.06687], [-0.30262, 49.06659], [-0.29819, 49.06381], [-0.29739, 49.06324], [-0.29731, 49.06318], [-0.29721, 49.06327], [-0.29731, 49.06318], [-0.29739, 49.06324], [-0.29819, 49.06381], [-0.30262, 49.06659], [-0.30236, 49.06687], [-0.30223, 49.06707], [-0.30214, 49.06725], [-0.30096, 49.0706], [-0.30082, 49.07086], [-0.30073, 49.07098], [-0.30047, 49.07121], [-0.30016, 49.0714], [-0.29995, 49.07148], [-0.29951, 49.0716], [-0.29752, 49.07192], [-0.29691, 49.07205], [-0.29631, 49.0722], [-0.29606, 49.07227], [-0.29586, 49.07237], [-0.29568, 49.07247], [-0.29555, 49.07257], [-0.29544, 49.07268], [-0.29534, 49.07282], [-0.29524, 49.07307], [-0.29523, 49.07319], [-0.29526, 49.07345], [-0.29537, 49.07366], [-0.29553, 49.07384], [-0.29566, 49.07394], [-0.29586, 49.07407], [-0.2963, 49.07423], [-0.29625, 49.07451], [-0.29626, 49.07457], [-0.29638, 49.07458], [-0.29639, 49.07475], [-0.29644, 49.07489], [-0.29648, 49.07502], [-0.2965, 49.0752], [-0.29647, 49.07537], [-0.29643, 49.07544], [-0.29595, 49.07592], [-0.29589, 49.07601], [-0.29585, 49.07607], [-0.29584, 49.07609], [-0.29582, 49.07613], [-0.29573, 49.07607], [-0.29479, 49.07699], [-0.2944, 49.07732], [-0.2942, 49.07746]]}, "properties": {}}]}